[{"OBJECT_NAME":"STARLINK-2752","OBJECT_ID":"2021-044BG","EPOCH":"2026-03-10T00:00:02.999808","MEAN_MOTION":15.3016501,"ECCENTRICITY":0.0001606,"INCLINATION":53.1594,"RA_OF_ASC_NODE":73.8214,"ARG_OF_PERICENTER":99.0542,"MEAN_ANOMALY":90.7161,"EPHEMERIS_TYPE":0,"CLASSIFICATION_TYPE":"U","NORAD_CAT_ID":48692,"ELEMENT_SET_NO":999,"REV_AT_EPOCH":574,"BSTAR":0.0013729382,"MEAN_MOTION_DOT":0.00040481,"MEAN_MOTION_DDOT":0},{"OBJECT_NAME":"HAWK-11C","OBJECT_ID":"2024-247E","EPOCH":"2026-03-09T12:17:35.407968","MEAN_MOTION":15.2884802,"ECCENTRICITY":0.00059001,"INCLINATION":45.0045,"RA_OF_ASC_NODE":114.8762,"ARG_OF_PERICENTER":329.704,"MEAN_ANOMALY":30.3502,"EPHEMERIS_TYPE":0,"CLASSIFICATION_TYPE":"U","NORAD_CAT_ID":62381,"ELEMENT_SET_NO":999,"REV_AT_EPOCH":6774,"BSTAR":0.00033290115,"MEAN_MOTION_DOT":9.223e-5,"MEAN_MOTION_DDOT":0}]
